Orbit 1
Satellite Number: 99999
Line 1: 1 99999U 20042A   26027.13434208  .00000000  00000-0  10000-4 0  9990
Line 2: 2 99999  97.6020 244.5384 0002214  88.6496 271.9396 15.06633386  1000
Keplerian Elements:
  Semi-major axis (a): 6921.623315 km
  Eccentricity (e): 0.000221
  Inclination (i): 97.602000 deg
  Argument of Perigee (ω): 88.649600 deg
  RAAN (Ω): 244.538400 deg
--------------------------------------------------
Orbit 2
Satellite Number: 64850
Line 1: 1 64850U 25152J   26027.13397895  .00009241  00000-0  64374-3 0  9993
Line 2: 2 64850  97.6033 244.5352 0002162  88.2078 271.9396 15.05654153 29162
Keplerian Elements:
  Semi-major axis (a): 6924.626736 km
  Eccentricity (e): 0.000216
  Inclination (i): 97.603300 deg
  Argument of Perigee (ω): 88.207800 deg
  RAAN (Ω): 244.535200 deg
--------------------------------------------------
Orbit 3
Satellite Number: 64844
Line 1: 1 64844U 25152C   26027.14227503  .00005950  00000-0  41611-3 0  9997
Line 2: 2 64844  97.6037 244.5242 0001742  82.2175 277.9250 15.05658758 29162
Keplerian Elements:
  Semi-major axis (a): 6924.612622 km
  Eccentricity (e): 0.000174
  Inclination (i): 97.603700 deg
  Argument of Perigee (ω): 82.217500 deg
  RAAN (Ω): 244.524200 deg
--------------------------------------------------
Orbit 4
Satellite Number: 64843
Line 1: 1 64843U 25152B   26027.13950928  .00007369  00000-0  51425-3 0  9999
Line 2: 2 64843  97.6021 244.5341 0001766  78.6981 281.4445 15.05659590 29165
Keplerian Elements:
  Semi-major axis (a): 6924.609999 km
  Eccentricity (e): 0.000177
  Inclination (i): 97.602100 deg
  Argument of Perigee (ω): 78.698100 deg
  RAAN (Ω): 244.534100 deg
--------------------------------------------------
